{
  "norad_id": 63221,
  "name": "TRANSPORTER-13 OBJECT M",
  "history": [
    {
      "epoch": "2026-03-28T15:33:49.084128Z",
      "apogee_km": 505.40693202046987,
      "perigee_km": 498.3466618620487,
      "latitude_deg": 3.857718415106533e-05,
      "longitude_deg": -78.3004337658951,
      "height_km": 503.90617840868686,
      "semi_major_axis_km": 6880.013796941259,
      "eccentricity": 0.0005131,
      "inclination_deg": 97.3986,
      "raan_deg": 341.22,
      "arg_perigee_deg": 72.6317,
      "mean_anomaly_deg": 287.548,
      "mean_motion_rev_day": 15.21313777
    },
    {
      "epoch": "2026-03-29T04:11:32.458272Z",
      "apogee_km": 505.3717650667486,
      "perigee_km": 498.3335356544294,
      "latitude_deg": 5.522487682416459e-05,
      "longitude_deg": 92.26729553860483,
      "height_km": 503.82219202023964,
      "semi_major_axis_km": 6879.989650360589,
      "eccentricity": 0.0005115,
      "inclination_deg": 97.3985,
      "raan_deg": 341.7371,
      "arg_perigee_deg": 71.5499,
      "mean_anomaly_deg": 288.6293,
      "mean_motion_rev_day": 15.21321786
    },
    {
      "epoch": "2026-03-29T23:08:07.166976Z",
      "apogee_km": 505.3214031595862,
      "perigee_km": 498.32998506982676,
      "latitude_deg": 3.0222064008279755e-05,
      "longitude_deg": 168.12031924354804,
      "height_km": 503.6997116553119,
      "semi_major_axis_km": 6879.962694114706,
      "eccentricity": 0.0005081,
      "inclination_deg": 97.3985,
      "raan_deg": 342.5127,
      "arg_perigee_deg": 69.7587,
      "mean_anomaly_deg": 290.4195,
      "mean_motion_rev_day": 15.21330727
    },
    {
      "epoch": "2026-03-30T05:26:58.645824Z",
      "apogee_km": 505.31608738591785,
      "perigee_km": 498.31944858506813,
      "latitude_deg": 4.966320232090859e-05,
      "longitude_deg": 73.4049027403055,
      "height_km": 503.66521729557496,
      "semi_major_axis_km": 6879.954767985493,
      "eccentricity": 0.00050848,
      "inclination_deg": 97.3986,
      "raan_deg": 342.7711,
      "arg_perigee_deg": 69.3098,
      "mean_anomaly_deg": 290.8683,
      "mean_motion_rev_day": 15.21333356
    },
    {
      "epoch": "2026-03-30T10:11:07.215648Z",
      "apogee_km": 505.29884968384977,
      "perigee_km": 498.3225826996313,
      "latitude_deg": 1.0597135640507934e-05,
      "longitude_deg": 2.3688115567114787,
      "height_km": 503.63026253400045,
      "semi_major_axis_km": 6879.94771619174,
      "eccentricity": 0.000507,
      "inclination_deg": 97.3984,
      "raan_deg": 342.9652,
      "arg_perigee_deg": 68.7543,
      "mean_anomaly_deg": 291.4234,
      "mean_motion_rev_day": 15.21335695
    },
    {
      "epoch": "2026-03-30T16:29:58.584768Z",
      "apogee_km": 505.2840462534077,
      "perigee_km": 498.31522083855634,
      "latitude_deg": -4.174717459201625e-05,
      "longitude_deg": -92.34603720133677,
      "height_km": 503.59173986929426,
      "semi_major_axis_km": 6879.936633545982,
      "eccentricity": 0.00050646,
      "inclination_deg": 97.3985,
      "raan_deg": 343.2237,
      "arg_perigee_deg": 68.2446,
      "mean_anomaly_deg": 291.9328,
      "mean_motion_rev_day": 15.21339371
    },
    {
      "epoch": "2026-03-31T06:42:24.051456Z",
      "apogee_km": 505.2474820886009,
      "perigee_km": 498.31541385879154,
      "latitude_deg": 6.6215832452099985e-06,
      "longitude_deg": 54.54608230606218,
      "height_km": 503.4989295383618,
      "semi_major_axis_km": 6879.918447973696,
      "eccentricity": 0.00050379,
      "inclination_deg": 97.3985,
      "raan_deg": 343.8054,
      "arg_perigee_deg": 66.7851,
      "mean_anomaly_deg": 293.3915,
      "mean_motion_rev_day": 15.21345403
    },
    {
      "epoch": "2026-04-01T04:48:23.237280Z",
      "apogee_km": 505.1923040219099,
      "perigee_km": 498.3206664088757,
      "latitude_deg": -5.754250684363544e-05,
      "longitude_deg": 83.04667878885635,
      "height_km": 503.37019551399743,
      "semi_major_axis_km": 6879.8934852153925,
      "eccentricity": 0.0004994,
      "inclination_deg": 97.3982,
      "raan_deg": 344.7102,
      "arg_perigee_deg": 64.6641,
      "mean_anomaly_deg": 295.5111,
      "mean_motion_rev_day": 15.21353683
    },
    {
      "epoch": "2026-04-02T10:47:55.608288Z",
      "apogee_km": 505.0881894742115,
      "perigee_km": 498.3214522528833,
      "latitude_deg": 8.331501224029695e-05,
      "longitude_deg": -6.841958330604196,
      "height_km": 503.19250356837694,
      "semi_major_axis_km": 6879.841820863548,
      "eccentricity": 0.00049178,
      "inclination_deg": 97.3979,
      "raan_deg": 345.9382,
      "arg_perigee_deg": 61.8416,
      "mean_anomaly_deg": 298.3317,
      "mean_motion_rev_day": 15.2137082
    },
    {
      "epoch": "2026-04-02T23:25:37.227648Z",
      "apogee_km": 505.04047224544956,
      "perigee_km": 498.31187736422817,
      "latitude_deg": 4.401749038787943e-05,
      "longitude_deg": 163.73301023213276,
      "height_km": 503.109635205698,
      "semi_major_axis_km": 6879.813174804839,
      "eccentricity": 0.00048901,
      "inclination_deg": 97.3977,
      "raan_deg": 346.4552,
      "arg_perigee_deg": 60.6099,
      "mean_anomaly_deg": 299.5625,
      "mean_motion_rev_day": 15.21380322
    },
    {
      "epoch": "2026-04-03T15:12:43.950528Z",
      "apogee_km": 504.9828763199639,
      "perigee_km": 498.30948663393156,
      "latitude_deg": -1.1774658360653652e-05,
      "longitude_deg": -73.04696975633432,
      "height_km": 503.00671616454434,
      "semi_major_axis_km": 6879.783181476947,
      "eccentricity": 0.000485,
      "inclination_deg": 97.3975,
      "raan_deg": 347.1015,
      "arg_perigee_deg": 58.8862,
      "mean_anomaly_deg": 301.2849,
      "mean_motion_rev_day": 15.21390271
    },
    {
      "epoch": "2026-04-04T16:28:05.828448Z",
      "apogee_km": 504.8977403452245,
      "perigee_km": 498.30695005252437,
      "latitude_deg": 5.359677553139499e-05,
      "longitude_deg": -91.89156711028683,
      "height_km": 502.86373064575247,
      "semi_major_axis_km": 6879.739345198875,
      "eccentricity": 0.000479,
      "inclination_deg": 97.3969,
      "raan_deg": 348.1353,
      "arg_perigee_deg": 56.3991,
      "mean_anomaly_deg": 303.7702,
      "mean_motion_rev_day": 15.21404812
    },
    {
      "epoch": "2026-04-05T14:34:01.845120Z",
      "apogee_km": 504.823936180258,
      "perigee_km": 498.3184840967506,
      "latitude_deg": -7.053890745226143e-05,
      "longitude_deg": -63.37782457721747,
      "height_km": 502.7623338904082,
      "semi_major_axis_km": 6879.708210138504,
      "eccentricity": 0.0004728,
      "inclination_deg": 97.3965,
      "raan_deg": 349.04,
      "arg_perigee_deg": 54.3829,
      "mean_anomaly_deg": 305.7846,
      "mean_motion_rev_day": 15.2141514
    },
    {
      "epoch": "2026-04-07T10:45:52.536672Z",
      "apogee_km": 504.6755810440118,
      "perigee_km": 498.36019544969895,
      "latitude_deg": -2.2303026805197933e-05,
      "longitude_deg": -6.345073413484598,
      "height_km": 502.56754641832686,
      "semi_major_axis_km": 6879.654888246855,
      "eccentricity": 0.00045899,
      "inclination_deg": 97.3962,
      "raan_deg": 350.8491,
      "arg_perigee_deg": 49.8417,
      "mean_anomaly_deg": 310.322,
      "mean_motion_rev_day": 15.21432828
    },
    {
      "epoch": "2026-04-07T15:30:00.036000Z",
      "apogee_km": 504.6720964061642,
      "perigee_km": 498.35932707786924,
      "latitude_deg": 2.7341250628467468e-05,
      "longitude_deg": -77.37700424517611,
      "height_km": 502.542837958721,
      "semi_major_axis_km": 6879.652711742016,
      "eccentricity": 0.0004588,
      "inclination_deg": 97.3961,
      "raan_deg": 351.0429,
      "arg_perigee_deg": 49.283,
      "mean_anomaly_deg": 310.8804,
      "mean_motion_rev_day": 15.2143355
    },
    {
      "epoch": "2026-04-08T10:26:29.704128Z",
      "apogee_km": 504.6013719547982,
      "perigee_km": 498.39030183699197,
      "latitude_deg": 2.313821212136339e-05,
      "longitude_deg": -1.5033261067935146,
      "height_km": 502.4851733079738,
      "semi_major_axis_km": 6879.632836895895,
      "eccentricity": 0.00045141,
      "inclination_deg": 97.396,
      "raan_deg": 351.8181,
      "arg_perigee_deg": 47.5251,
      "mean_anomaly_deg": 312.6366,
      "mean_motion_rev_day": 15.21440143
    },
    {
      "epoch": "2026-04-09T06:57:41.576256Z",
      "apogee_km": 504.5359490468145,
      "perigee_km": 498.41763331776383,
      "latitude_deg": -2.4121888873659195e-05,
      "longitude_deg": 50.694485209576925,
      "height_km": 502.4046265955767,
      "semi_major_axis_km": 6879.613791182289,
      "eccentricity": 0.00044467,
      "inclination_deg": 97.396,
      "raan_deg": 352.6581,
      "arg_perigee_deg": 45.1121,
      "mean_anomaly_deg": 315.0475,
      "mean_motion_rev_day": 15.21446461
    },
    {
      "epoch": "2026-04-10T05:03:35.536608Z",
      "apogee_km": 504.467075848258,
      "perigee_km": 498.43917897861775,
      "latitude_deg": 6.461916991883917e-05,
      "longitude_deg": 79.21649053650351,
      "height_km": 502.3289578349884,
      "semi_major_axis_km": 6879.590127413438,
      "eccentricity": 0.0004381,
      "inclination_deg": 97.396,
      "raan_deg": 353.5625,
      "arg_perigee_deg": 42.8053,
      "mean_anomaly_deg": 317.3524,
      "mean_motion_rev_day": 15.21454311
    },
    {
      "epoch": "2026-04-11T03:09:29.193696Z",
      "apogee_km": 504.4037652374891,
      "perigee_km": 498.47384607604636,
      "latitude_deg": -3.258692236731511e-05,
      "longitude_deg": 107.73998740775401,
      "height_km": 502.27865753339415,
      "semi_major_axis_km": 6879.575805656767,
      "eccentricity": 0.00043098,
      "inclination_deg": 97.3962,
      "raan_deg": 354.4671,
      "arg_perigee_deg": 40.709,
      "mean_anomaly_deg": 319.4467,
      "mean_motion_rev_day": 15.21459062
    }
  ]
}